     2.10           N: GPS NAV DATA                         RINEX VERSION / TYPE
teqc  2009Oct19     IGN                 20160104 00:30:10UTCPGM / RUN BY / DATE
    17                                                      LEAP SECONDS
    1.1176D-08 -7.4506D-09 -5.9605D-08  1.1921D-07          ION ALPHA
    1.1674D+05 -2.2938D+05 -1.3107D+05  1.0486D+06          ION BETA
    3.725290298462D-09 1.243449787580D-14   147456     1878 DELTA-UTC: A0,A1,T,W
                                                            END OF HEADER
29  16   1   3   6   0   0.0  6.504990160465D-04  1.250555214938D-12  0.000000000000D+00  8.600000000000D+01 -4.656250000000D+00  4.226604626476D-09 -1.597429948558D+00 -2.384185791016D-07  9.541145991534D-04  7.590278983116D-06  5.153637094498D+03  2.160000000000D+04 -2.235174179077D-08 -6.500323127521D-01 -2.235174179077D-08  9.759471038628D-01  2.383437500000D+02 -6.065169323447D-01 -7.945688112660D-09  2.328668426958D-10  1.000000000000D+00  1.878000000000D+03  0.000000000000D+00  2.900000000000D+00  0.000000000000D+00 -1.024454832077D-08  8.600000000000D+01  1.440000000000D+04 
26  16   1   3   6   0   0.0 -1.942734234035D-04 -1.693933882052D-11  0.000000000000D+00  1.100000000000D+02 -3.553125000000D+01  4.548403744987D-09 -2.143434149379D+00 -1.866370439529D-06  6.368018221110D-04  7.852911949158D-06  5.153690908432D+03  2.160000000000D+04 -5.587935447693D-09 -1.757774730419D+00 -1.490116119385D-08  9.604688454169D-01  2.300937500000D+02 -2.669488365191D-01 -8.122124033353D-09 -9.964700784071D-11  1.000000000000D+00  1.878000000000D+03  0.000000000000D+00  2.000000000000D+00  0.000000000000D+00  7.450580596924D-09  1.100000000000D+02  1.440000000000D+04 
27  16   1   3   6   0   0.0  4.999153316021D-05  3.410605131648D-12  0.000000000000D+00  3.500000000000D+01 -1.165625000000D+01  4.387325606865D-09  2.092809480109D+00 -5.271285772324D-07  2.935950062238D-03  7.895752787590D-06  5.153715070724D+03  2.160000000000D+04 -4.097819328308D-08 -7.086676551724D-01  9.499490261078D-08  9.699312394722D-01  2.313750000000D+02  2.297426385031D-01 -7.993190091308D-09  2.742971398626D-10  1.000000000000D+00  1.878000000000D+03  0.000000000000D+00  2.000000000000D+00  0.000000000000D+00  1.862645149231D-09  3.500000000000D+01  1.440000000000D+04 
22  16   1   3   6   0   0.0  4.153437912464D-04 -3.637978807092D-12  0.000000000000D+00  4.800000000000D+01 -1.390625000000D+01  5.245575642138D-09  2.891785925394D+00 -8.121132850647D-07  7.513250806369D-03  9.402632713318D-06  5.155109846115D+03  2.160000000000D+04  7.636845111847D-08  1.362499931283D+00 -5.587935447693D-08  9.224335810041D-01  1.763125000000D+02 -2.027632638055D+00 -8.172483273875D-09 -1.907222300607D-10  1.000000000000D+00  1.878000000000D+03  0.000000000000D+00  2.000000000000D+00  0.000000000000D+00 -1.769512891769D-08  4.800000000000D+01  1.440000000000D+04 
 7  16   1   3   6   0   0.0  4.751640371978D-04 -1.364242052659D-12  0.000000000000D+00  8.100000000000D+01  2.725000000000D+01  4.530545858277D-09 -7.584959688931D-01  1.508742570877D-06  9.008191176690D-03  4.557892680168D-06  5.153681568146D+03  2.160000000000D+04  2.030283212662D-07 -2.775317203467D+00  1.061707735062D-07  9.682510605031D-01  2.935000000000D+02 -2.678720405240D+00 -8.255701025942D-09 -1.000041655749D-11  1.000000000000D+00  1.878000000000D+03  0.000000000000D+00  4.000000000000D+00  0.000000000000D+00 -1.117587089539D-08  8.100000000000D+01  1.443000000000D+04 
16  16   1   3   6   0   0.0 -5.168281495571D-05  3.296918293927D-12  0.000000000000D+00  5.800000000000D+01 -3.962500000000D+01  3.845160166355D-09  3.074016571758D+00 -2.009794116020D-06  8.346221875399D-03  8.467584848404D-06  5.153686338425D+03  2.160000000000D+04 -9.126961231232D-08 -1.683371970628D+00 -7.450580596924D-08  9.905966250685D-01  2.323437500000D+02  3.144537510609D-01 -7.639246776720D-09 -8.143196339671D-11  1.000000000000D+00  1.878000000000D+03  0.000000000000D+00  2.000000000000D+00  0.000000000000D+00 -1.024454832077D-08  5.800000000000D+01  1.443000000000D+04 
 3  16   1   3   6   0   0.0 -6.460584700108D-06 -5.115907697473D-12  0.000000000000D+00  8.400000000000D+01 -2.109375000000D+01  4.515545271033D-09  2.764648832412D+00 -1.095235347748D-06  3.245440311730D-04  9.601935744286D-06  5.153796325684D+03  2.160000000000D+04  2.421438694000D-08  1.389611840945D+00 -4.470348358154D-08  9.588351667619D-01  1.951562500000D+02  2.897288859985D+00 -7.976403537668D-09 -2.553677824757D-10  1.000000000000D+00  1.878000000000D+03  0.000000000000D+00  2.800000000000D+00  0.000000000000D+00  1.862645149231D-09  8.400000000000D+01  1.443000000000D+04 
 1  16   1   3   6   0   0.0  8.196569979191D-06  9.094947017729D-13  0.000000000000D+00  9.300000000000D+01 -2.684375000000D+01  4.724839630654D-09 -7.606605668515D-02 -1.447275280952D-06  4.935515695252D-03  6.247311830521D-06  5.153652025223D+03  2.160000000000D+04  4.097819328308D-08  3.485648913325D-01  7.264316082001D-08  9.636818275248D-01  2.578750000000D+02  4.857234646977D-01 -8.226057168770D-09 -2.535819991489D-11  1.000000000000D+00  1.878000000000D+03  0.000000000000D+00  2.000000000000D+00  0.000000000000D+00  5.122274160385D-09  9.300000000000D+01  1.443000000000D+04 
11  16   1   3   6   0   0.0 -6.252024322748D-04 -1.932676241267D-12  0.000000000000D+00  1.050000000000D+02 -1.009375000000D+01  6.407766761640D-09 -6.434801850183D-01 -3.855675458908D-07  1.623461523559D-02  6.120651960373D-06  5.153642004013D+03  2.160000000000D+04 -2.142041921616D-07 -1.794759248070D-02  9.499490261078D-08  8.955193613131D-01  2.276250000000D+02  1.492720055359D+00 -9.293958491696D-09  2.050085379235D-10  1.000000000000D+00  1.878000000000D+03  0.000000000000D+00  2.800000000000D+00  0.000000000000D+00 -1.210719347000D-08  1.050000000000D+02  1.443000000000D+04 
32  16   1   3   6   0   0.0  6.835209205747D-05  1.239186531166D-11  0.000000000000D+00  3.600000000000D+01 -7.937500000000D+00  4.929133989862D-09 -3.489668646478D-01 -4.172325134277D-07  1.136634126306D-02  9.523704648018D-06  5.153634824753D+03  2.160000000000D+04  1.993030309677D-07  1.468684027511D+00  2.793967723846D-08  9.463963459151D-01  1.878125000000D+02  2.053052342099D-01 -8.299988252247D-09 -2.003654880900D-10  1.000000000000D+00  1.878000000000D+03  0.000000000000D+00  2.000000000000D+00  0.000000000000D+00 -3.259629011154D-09  3.600000000000D+01  1.443000000000D+04 
23  16   1   3   6   0   0.0 -1.530074514449D-04 -1.932676241267D-12  0.000000000000D+00  6.600000000000D+01  6.228125000000D+01  4.798414110496D-09  8.361339690903D-01  3.388151526451D-06  1.039656263310D-02  8.523464202881D-06  5.153751491547D+03  2.160000000000D+04 -8.568167686462D-08  2.437293268876D+00  1.471489667892D-07  9.468805249860D-01  2.080000000000D+02 -2.617867151738D+00 -8.269273266137D-09 -5.357366026498D-12  1.000000000000D+00  1.878000000000D+03  0.000000000000D+00  2.000000000000D+00  0.000000000000D+00 -2.002343535423D-08  6.600000000000D+01  1.443000000000D+04 
 9  16   1   3   6   0   0.0  4.200404509902D-05  7.958078640513D-12  0.000000000000D+00  5.100000000000D+01  5.600000000000D+01  4.541260700819D-09  2.063554954295D+00  2.957880496979D-06  5.515356315300D-04  8.542090654373D-06  5.153665397644D+03  2.160000000000D+04  3.725290298462D-09  2.430708959871D+00  1.862645149231D-09  9.559097475351D-01  2.116875000000D+02  1.890747229531D+00 -8.041763699396D-09  9.428963859692D-11  1.000000000000D+00  1.878000000000D+03  0.000000000000D+00  2.000000000000D+00  0.000000000000D+00  9.313225746155D-10  5.100000000000D+01  1.443000000000D+04 
31  16   1   3   6   0   0.0  2.886368893087D-04 -1.591615728103D-12  0.000000000000D+00  7.900000000000D+01  1.593750000000D+01  4.466257585989D-09 -7.674639990418D-01  6.016343832016D-07  8.353213430382D-03  4.798173904419D-06  5.153665809631D+03  2.160000000000D+04 -5.587935447693D-08 -2.766614700264D+00 -1.285225152969D-07  9.730981323460D-01  2.904062500000D+02 -4.643886785096D-01 -8.243914884076D-09  2.214377986531D-11  1.000000000000D+00  1.878000000000D+03  0.000000000000D+00  2.000000000000D+00  0.000000000000D+00 -1.350417733192D-08  7.900000000000D+01  1.443000000000D+04 
19  16   1   3   6   0   0.0 -5.242004990578D-04 -2.273736754432D-13  0.000000000000D+00  3.500000000000D+01 -1.096875000000D+01  4.335537706623D-09 -4.209992056096D-01 -4.395842552185D-07  1.127940986771D-02  7.666647434235D-06  5.155186805725D+03  2.160000000000D+04  4.656612873077D-08 -6.105267337462D-01  1.303851604462D-07  9.721209557341D-01  2.373750000000D+02  6.683640821496D-01 -8.095336845315D-09  1.950081207625D-10  1.000000000000D+00  1.878000000000D+03  0.000000000000D+00  2.000000000000D+00  0.000000000000D+00 -1.490116119385D-08  3.500000000000D+01  1.644000000000D+04 
17  16   1   3   6   0   0.0 -1.980466768146D-04 -7.958078640513D-13  0.000000000000D+00  1.120000000000D+02 -1.828125000000D+01  4.128029091838D-09  2.098488772401D+00 -1.134350895882D-06  1.088904181961D-02  7.871538400650D-06  5.153620731354D+03  2.160000000000D+04 -1.117587089539D-08 -6.596106533056D-01 -2.756714820862D-07  9.750242015117D-01  2.344687500000D+02 -1.973507245321D+00 -7.764251983689D-09  2.057228548969D-10  1.000000000000D+00  1.878000000000D+03  0.000000000000D+00  2.800000000000D+00  0.000000000000D+00 -1.071020960808D-08  1.120000000000D+02  1.678800000000D+04 
12  16   1   3   6   0   0.0  3.581498749554D-04  2.842170943040D-12  0.000000000000D+00  5.800000000000D+01 -2.687500000000D+01  3.956950537158D-09 -1.138053401475D+00 -1.376494765282D-06  5.670322803780D-03  7.515773177147D-06  5.153551956177D+03  2.160000000000D+04  1.396983861923D-07 -1.702125265241D+00  2.607703208923D-08  9.900755234082D-01  2.515937500000D+02  6.404528384372D-01 -7.791038813753D-09 -4.893060958486D-11  1.000000000000D+00  1.878000000000D+03  0.000000000000D+00  2.000000000000D+00  0.000000000000D+00 -1.257285475731D-08  5.800000000000D+01  1.441800000000D+04 
